STARLINK-31914          
1 59902U 24100T   26068.16327008 -.00001507  00000+0 -45258-4 0  9993
2 59902  43.0032 128.6013 0001295 251.5976 108.4735 15.27567526100962
LIZZIESAT-2 (LS-2)      
1 62383U 24247G   26068.49140277  .00009388  00000+0  34517-3 0  9997
2 62383  44.9909 117.0823 0004092 327.5136  32.5495 15.28222796 67716
